CYGNUS NG-23            
1 65616U 25208A   25343.18736383  .00013707  00000+0  25261-3 0  9993
2 65616  51.6308 160.0685 0003366 223.6321 136.4401 15.49438460   229
DRAGONFLY               
1 65729U 98067XH  25343.49474647  .00190953  00000+0  14915-2 0  9999
2 65729  51.6245 152.3636 0006537 255.9884 104.0387 15.70499103 12658
1998-067XK              
1 65731U 98067XK  25343.47826444  .00113689  00000+0  11288-2 0  9997
2 65731  51.6282 153.7695 0005245 225.0581 134.9989 15.64890010 12632
RSP-03                  
1 65732U 98067XL  25343.48887404  .00148707  00000+0  13210-2 0  9998
2 65732  51.6260 153.0820 0006011 229.3299 130.7176 15.67520874 12652
GHS-01                  
1 65733U 98067XM  25343.00731221  .00212660  00000+0  15001-2 0  9992
2 65733  51.6283 154.3653 0006877 253.5848 106.4394 15.72845555 12592
YOTSUBA-KULOVER         
1 65941U 98067XN  25342.67449860  .00072881  00000+0  92612-3 0  9993
2 65941  51.6278 160.3988 0001691 209.1564 150.9334 15.58725095  9220
BOTAN                   
1 65942U 98067XP  25342.75246625  .00105605  00000+0  11867-2 0  9990
2 65942  51.6289 159.4206 0003646 205.1392 154.9425 15.61774772  9249
E-KAGAKU-1              
1 65943U 98067XQ  25342.73860951  .00067115  00000+0  85625-3 0  9990
2 65943  51.6297 160.0822 0002977 178.8942 181.2057 15.58651727  9237
HRC MONOBLOCK CAMERA    
1 66052U 98067XR  25343.50002216  .00044690  00000+0  68667-3 0  9990
2 66052  51.6290 157.6571 0003812 171.0105 189.0954 15.53794743  8333
HTV-X1                  
1 66174U 25241A   25343.18736383  .00013707  00000+0  25261-3 0  9990
2 66174  51.6308 160.0685 0003366 223.6321 136.4401 15.49438460   511
SZ-21 MODULE            
1 66515U 25246C   25343.21524115  .00032371  00000+0  35922-3 0  9999
2 66515  41.4773  37.5424 0006283 241.0117 119.0093 15.62223553  3898
SHENZHOU-22             
1 66645U 25272A   25343.19148786  .00030369  00000+0  38224-3 0  9998
2 66645  41.4680  38.2458 0008971   2.1097 357.9778 15.58940873263003
